{
  "norad_id": 49752,
  "name": "STARLINK-3209",
  "history": [
    {
      "epoch": "2026-03-28T14:55:11.925120Z",
      "apogee_km": 540.7019673215054,
      "perigee_km": 538.7677303525716,
      "latitude_deg": -2.654354734354325e-05,
      "longitude_deg": 4.300814674528703,
      "height_km": 540.5232967965597,
      "semi_major_axis_km": 6917.871848837039,
      "eccentricity": 0.0001398,
      "inclination_deg": 53.2186,
      "raan_deg": 54.14,
      "arg_perigee_deg": 83.6269,
      "mean_anomaly_deg": 276.4882,
      "mean_motion_rev_day": 15.08842794
    },
    {
      "epoch": "2026-03-29T03:38:17.450304Z",
      "apogee_km": 540.7227810106951,
      "perigee_km": 538.7816213008509,
      "latitude_deg": -1.6063949751764344e-05,
      "longitude_deg": 170.62688282196174,
      "height_km": 540.5581995955971,
      "semi_major_axis_km": 6917.889201155773,
      "eccentricity": 0.0001403,
      "inclination_deg": 53.2181,
      "raan_deg": 51.7614,
      "arg_perigee_deg": 84.6952,
      "mean_anomaly_deg": 275.42,
      "mean_motion_rev_day": 15.08837117
    },
    {
      "epoch": "2026-03-30T03:29:03.907968Z",
      "apogee_km": 540.6841497673731,
      "perigee_km": 538.7781387362684,
      "latitude_deg": 4.496997549155317e-05,
      "longitude_deg": 167.4936249942939,
      "height_km": 540.5481369846517,
      "semi_major_axis_km": 6917.86814425182,
      "eccentricity": 0.00013776,
      "inclination_deg": 53.218,
      "raan_deg": 47.301,
      "arg_perigee_deg": 85.2597,
      "mean_anomaly_deg": 274.8553,
      "mean_motion_rev_day": 15.08844006
    },
    {
      "epoch": "2026-03-30T14:36:45.584352Z",
      "apogee_km": 540.6536546585585,
      "perigee_km": 538.7892918000243,
      "latitude_deg": -1.4481299738137577e-05,
      "longitude_deg": -1.9691909906676792,
      "height_km": 540.5536975400078,
      "semi_major_axis_km": 6917.858473229291,
      "eccentricity": 0.00013475,
      "inclination_deg": 53.2181,
      "raan_deg": 45.2189,
      "arg_perigee_deg": 86.0888,
      "mean_anomaly_deg": 274.0258,
      "mean_motion_rev_day": 15.0884717
    },
    {
      "epoch": "2026-03-30T20:58:18.632928Z",
      "apogee_km": 540.7998499191872,
      "perigee_km": 538.6941843820468,
      "latitude_deg": 5.3867115882731624e-05,
      "longitude_deg": -98.80630451640926,
      "height_km": 540.5931180466931,
      "semi_major_axis_km": 6917.884017150616,
      "eccentricity": 0.00015219,
      "inclination_deg": 53.2181,
      "raan_deg": 44.0306,
      "arg_perigee_deg": 87.308,
      "mean_anomaly_deg": 272.8087,
      "mean_motion_rev_day": 15.08838813
    },
    {
      "epoch": "2026-03-31T06:30:37.607904Z",
      "apogee_km": 540.8134534939009,
      "perigee_km": 538.682744883351,
      "latitude_deg": 5.631097717366398e-05,
      "longitude_deg": 115.93709887233982,
      "height_km": 540.7757542303202,
      "semi_major_axis_km": 6917.885099188626,
      "eccentricity": 0.000154,
      "inclination_deg": 53.2193,
      "raan_deg": 42.2448,
      "arg_perigee_deg": 97.117,
      "mean_anomaly_deg": 262.9998,
      "mean_motion_rev_day": 15.08838459
    },
    {
      "epoch": "2026-04-01T03:10:38.672256Z",
      "apogee_km": 540.8036567623349,
      "perigee_km": 538.6977133932432,
      "latitude_deg": 3.821512803121174e-05,
      "longitude_deg": 161.21838982156996,
      "height_km": 540.7635908699694,
      "semi_major_axis_km": 6917.887685077789,
      "eccentricity": 0.00015221,
      "inclination_deg": 53.2196,
      "raan_deg": 38.3793,
      "arg_perigee_deg": 96.3898,
      "mean_anomaly_deg": 263.7268,
      "mean_motion_rev_day": 15.08837613
    }
  ]
}